[{"OBJECT_NAME":"GEOSCAN 6 (RS92S6)","OBJECT_ID":"2025-155D","EPOCH":"2026-03-09T21:52:39.201312","MEAN_MOTION":15.27985277,"ECCENTRICITY":0.00087677,"INCLINATION":97.4466,"RA_OF_ASC_NODE":37.2933,"ARG_OF_PERICENTER":153.7679,"MEAN_ANOMALY":206.4006,"EPHEMERIS_TYPE":0,"CLASSIFICATION_TYPE":"U","NORAD_CAT_ID":64879,"ELEMENT_SET_NO":999,"REV_AT_EPOCH":6559,"BSTAR":0.00053762354,"MEAN_MOTION_DOT":0.00014633,"MEAN_MOTION_DDOT":0},{"OBJECT_NAME":"STARLINK-36453","OBJECT_ID":"2026-003H","EPOCH":"2026-03-09T11:42:15.605568","MEAN_MOTION":15.27614464,"ECCENTRICITY":0.00010519,"INCLINATION":43.0003,"RA_OF_ASC_NODE":228.149,"ARG_OF_PERICENTER":209.8674,"MEAN_ANOMALY":150.2118,"EPHEMERIS_TYPE":0,"CLASSIFICATION_TYPE":"U","NORAD_CAT_ID":67341,"ELEMENT_SET_NO":999,"REV_AT_EPOCH":879,"BSTAR":0.0014648968,"MEAN_MOTION_DOT":0.00040312,"MEAN_MOTION_DDOT":0}]
